{"type":"FeatureCollection","attribution":"Administrative boundaries: NAMRIA shapefile v2023-11-06; barangay names/codes: Philippine Statistics Authority PSGC.","source":"https://github.com/bendlikeabamboo/barangay-boundaries-repository/releases/tag/v2026.4.13.0","boundarySnapshot":"2023-11-06","features":[{"type":"Feature","properties":{"name":"Baclaran","psgcCode":"0403404001"},"geometry":{"type":"Polygon","coordinates":[[[121.15837498000008,14.251723217000063],[121.17031019900003,14.24862960300004],[121.171618695,14.242140284000072],[121.15757357200005,14.24104145800004],[121.15837498000008,14.251723217000063]]]}},{"type":"Feature","properties":{"name":"Banaybanay","psgcCode":"0403404002"},"geometry":{"type":"Polygon","coordinates":[[[121.14544147600009,14.265191822000077],[121.15121533500007,14.254678787000046],[121.10976099700008,14.240730476000067],[121.113525535,14.250946002000035],[121.1195996780001,14.247401844000024],[121.13330756300002,14.263078681000025],[121.14544147600009,14.265191822000077]]]}},{"type":"Feature","properties":{"name":"Banlic","psgcCode":"0403404003"},"geometry":{"type":"Polygon","coordinates":[[[121.14340554900002,14.238424016000067],[121.1464555980001,14.230717946000027],[121.13502193400006,14.22462061300007],[121.13102089200004,14.236032131000059],[121.14340554900002,14.238424016000067]]]}},{"type":"Feature","properties":{"name":"Butong","psgcCode":"0403404004"},"geometry":{"type":"Polygon","coordinates":[[[121.13399253400007,14.294215507000047],[121.14446178100002,14.284611013000074],[121.139837843,14.278015778000054],[121.13409907300002,14.281350002000067],[121.13399253400007,14.294215507000047]]]}},{"type":"Feature","properties":{"name":"Bigaa","psgcCode":"0403404005"},"geometry":{"type":"Polygon","coordinates":[[[121.13065429100004,14.298357056000043],[121.13739388700003,14.277529205000064],[121.1280016180001,14.275707995000062],[121.12478378000003,14.283613670000022],[121.13065429100004,14.298357056000043]]]}},{"type":"Feature","properties":{"name":"Casile","psgcCode":"0403404006"},"geometry":{"type":"Polygon","coordinates":[[[121.04209593700011,14.213878747000024],[121.05468057100006,14.206672956000034],[121.0530875610001,14.199625689000072],[121.0336705200001,14.18473732700005],[121.02636499300002,14.157402716000036],[121.0152808140001,14.155680318000066],[121.031764898,14.202937527000074],[121.04209593700011,14.213878747000024]]]}},{"type":"Feature","properties":{"name":"Gulod","psgcCode":"0403404007"},"geometry":{"type":"Polygon","coordinates":[[[121.16450298900008,14.26575239300007],[121.17031019900003,14.24862960300004],[121.15308695200008,14.250457096000048],[121.14960607800003,14.26371092100004],[121.16450298900008,14.26575239300007]]]}},{"type":"Feature","properties":{"name":"Mamatid","psgcCode":"0403404009"},"geometry":{"type":"Polygon","coordinates":[[[121.15818542500006,14.245762721000062],[121.17483710200008,14.238016397000024],[121.1464555980001,14.230717946000027],[121.14302247400008,14.239370724000025],[121.15818542500006,14.245762721000062]]]}},{"type":"Feature","properties":{"name":"Marinig","psgcCode":"0403404010"},"geometry":{"type":"Polygon","coordinates":[[[121.13853804300004,14.273829017000025],[121.14894759100002,14.283514856000068],[121.16436561000012,14.26541717400005],[121.14561033200005,14.262681067000074],[121.13853804300004,14.273829017000025]]]}},{"type":"Feature","properties":{"name":"Niugan","psgcCode":"0403404011"},"geometry":{"type":"Polygon","coordinates":[[[121.13878363800006,14.27355779800007],[121.14477861300008,14.265993068000057],[121.11699027000009,14.246713250000028],[121.1235227620001,14.266464885000062],[121.13878363800006,14.27355779800007]]]}},{"type":"Feature","properties":{"name":"Pittland","psgcCode":"0403404012"},"geometry":{"type":"Polygon","coordinates":[[[121.09183006400008,14.234312387000045],[121.09294861100011,14.226665316000037],[121.05468057100006,14.206672956000034],[121.04209593700011,14.213878747000024],[121.09183006400008,14.234312387000045]]]}},{"type":"Feature","properties":{"name":"Pulo","psgcCode":"0403404013"},"geometry":{"type":"Polygon","coordinates":[[[121.14754532400002,14.253712181000026],[121.13336713900003,14.238961318000065],[121.10834395600011,14.238066779000064],[121.14152481100007,14.256490961000054],[121.14754532400002,14.253712181000026]]]}},{"type":"Feature","properties":{"name":"Sala","psgcCode":"0403404014"},"geometry":{"type":"Polygon","coordinates":[[[121.1395720270001,14.277310414000056],[121.132178414,14.265999433000047],[121.1235227620001,14.266464885000062],[121.11847207800008,14.255747405000022],[121.11489792100008,14.274318368000024],[121.1395720270001,14.277310414000056]]]}},{"type":"Feature","properties":{"name":"San Isidro","psgcCode":"0403404015"},"geometry":{"type":"Polygon","coordinates":[[[121.15424882400009,14.255375141000059],[121.1563751860001,14.245717358000036],[121.13454668000008,14.234147171000075],[121.11853141200004,14.235211552000067],[121.15424882400009,14.255375141000059]]]}},{"type":"Feature","properties":{"name":"Diezmo","psgcCode":"0403404016"},"geometry":{"type":"Polygon","coordinates":[[[121.10255507500005,14.240325318000032],[121.11308805600004,14.234697625000024],[121.09294861100011,14.226665316000037],[121.09013173200003,14.235106426000073],[121.10255507500005,14.240325318000032]]]}},{"type":"Feature","properties":{"name":"Barangay Uno (Pob.)","psgcCode":"0403404017"},"geometry":{"type":"Polygon","coordinates":[[[121.12052275400004,14.27977247800004],[121.12672507700006,14.278860291000058],[121.12181110800009,14.27777190200004],[121.12052275400004,14.27977247800004]]]}},{"type":"Feature","properties":{"name":"Barangay Dos (Pob.)","psgcCode":"0403404018"},"geometry":{"type":"Polygon","coordinates":[[[121.12672507700006,14.278860291000058],[121.12433537100003,14.275251768000032],[121.12227732200006,14.277960447000055],[121.12672507700006,14.278860291000058]]]}},{"type":"Feature","properties":{"name":"Barangay Tres (Pob.)","psgcCode":"0403404019"},"geometry":{"type":"Polygon","coordinates":[[[121.1182129230001,14.275584734000063],[121.12433537100003,14.275251768000032],[121.12649187700003,14.27658192900003],[121.1280016180001,14.275707995000062],[121.1235642480001,14.27332356900007],[121.1182129230001,14.275584734000063]]]}}]}
